GLOBALSTAR M070 [+]     
1 32264U 07048B   24086.62484615 -.00000091  00000+0  73255-4 0  9998
2 32264  51.9758  51.9236 0000356 118.3811  52.1985 12.62288560757141
GLOBALSTAR M066 [+]     
1 32265U 07048C   24086.55437715 -.00000066  00000+0  21181-3 0  9992
2 32265  51.9665 274.1387 0001319  79.4448 315.1076 12.62258489759409
GLOBALSTAR M068 [-]     
1 32266U 07048D   24086.56043749 -.00000085  00000+0  10211-3 0  9997
2 32266  51.9870 226.7257 0000809 175.2725 263.8168 12.62782325761004
GLOBALSTAR M079 [+]     
1 37188U 10054A   24086.33118532 -.00000093  00000+0  58212-4 0  9997
2 37188  52.0043  63.1291 0000585  62.8016  84.6844 12.62267642619891
GLOBALSTAR M076 [+]     
1 37190U 10054C   24086.38786019 -.00000100  00000+0  22642-4 0  9993
2 37190  52.0030  62.4794 0000890  93.3509  71.2961 12.62275839620223
GLOBALSTAR M077 [+]     
1 37191U 10054D   24086.53462463 -.00000081  00000+0  12926-3 0  9996
2 37191  52.0100  18.7617 0000551  84.3018  87.0562 12.62270541620619
